{
    "links": {
        "self": "http://www.neowsapp.com/rest/v1/neo/3291103?api_key=iIulBulltgU6a56xZRHN4H3l9WmuAYTsLGpBGhQ2"
    },
    "id": "3291103",
    "neo_reference_id": "3291103",
    "name": "(2005 SS1)",
    "designation": "2005 SS1",
    "nasa_jpl_url": "http://ssd.jpl.nasa.gov/sbdb.cgi?sstr=3291103",
    "absolute_magnitude_h": 26.1,
    "estimated_diameter": {
        "kilometers": {
            "estimated_diameter_min": 0.0160160338,
            "estimated_diameter_max": 0.0358129403
        },
        "meters": {
            "estimated_diameter_min": 16.0160337979,
            "estimated_diameter_max": 35.8129403019
        },
        "miles": {
            "estimated_diameter_min": 0.0099518989,
            "estimated_diameter_max": 0.0222531225
        },
        "feet": {
            "estimated_diameter_min": 52.5460443254,
            "estimated_diameter_max": 117.4965270602
        }
    },
    "is_potentially_hazardous_asteroid": false,
    "close_approach_data": [
        {
            "close_approach_date": "2005-09-17",
            "close_approach_date_full": "2005-Sep-17 14:08",
            "epoch_date_close_approach": 1126966080000,
            "relative_velocity": {
                "kilometers_per_second": "9.694615914",
                "kilometers_per_hour": "34900.617290367",
                "miles_per_hour": "21685.8863380061"
            },
            "miss_distance": {
                "astronomical": "0.016938134",
                "lunar": "6.588934126",
                "kilometers": "2533908.76817458",
                "miles": "1574497.898106004"
            },
            "orbiting_body": "Earth"
        }
    ],
    "orbital_data": {
        "orbit_id": "9",
        "orbit_determination_date": "2017-04-06 09:10:27",
        "first_observation_date": "2005-09-23",
        "last_observation_date": "2005-10-07",
        "data_arc_in_days": 14,
        "observations_used": 41,
        "orbit_uncertainty": "8",
        "minimum_orbit_intersection": ".00690035",
        "jupiter_tisserand_invariant": "3.684",
        "epoch_osculation": "2453640.5",
        "eccentricity": ".5139978557573044",
        "semi_major_axis": "1.980749463008632",
        "inclination": "2.872084203526933",
        "ascending_node_longitude": "179.1577502009889",
        "orbital_period": "1018.222635050956",
        "perihelion_distance": ".962648486229763",
        "perihelion_argument": "142.7228392292939",
        "aphelion_distance": "2.998850439787501",
        "perihelion_time": "2453605.165740110434",
        "mean_anomaly": "12.49268393999824",
        "mean_motion": ".3535572551694299",
        "equinox": "J2000",
        "orbit_class": {
            "orbit_class_type": "APO",
            "orbit_class_description": "Near-Earth asteroid orbits which cross the Earth’s orbit similar to that of 1862 Apollo",
            "orbit_class_range": "a (semi-major axis) > 1.0 AU; q (perihelion) < 1.017 AU"
        }
    },
    "is_sentry_object": false
}